{
  "type": "FeatureCollection",
  "features": [
    {
      "type": "Feature",
      "properties": {
        "norad_id": 34350,
        "name": "IRIDIUM 33 DEB",
        "group": "iridium-33-debris",
        "lat": 80.21186418326903,
        "lon": 28.89345508615238,
        "alt_km": 732.1986387168135,
        "timestamp": "2025-12-02T23:34:15.901567+00:00",
        "meta_object_name": "IRIDIUM 33 DEB",
        "meta_object_id": "1997-051ES",
        "meta_epoch": "2025-12-02T08:18:42.441120",
        "meta_mean_motion": 14.45348851,
        "meta_eccentricity": 0.0021747,
        "meta_inclination": 86.3283,
        "meta_ra_of_asc_node": 7.317,
        "meta_arg_of_pericenter": 168.0974,
        "meta_mean_anomaly": 206.9474,
        "meta_ephemeris_type": 0,
        "meta_classification_type": "U",
        "meta_norad_cat_id": 34350,
        "meta_element_set_no": 999,
        "meta_rev_at_epoch": 88143,
        "meta_bstar": 0.0004162,
        "meta_mean_motion_dot": 1.486e-05,
        "meta_mean_motion_ddot": 0,
        "tle_line1": "1 34350U 97051ES  25336.34632455  .00001486  00000+0  41620-3 0  9992",
        "tle_line2": "2 34350  86.3283   7.3170 0021747 168.0974 206.9474 14.45348851881430"
      },
      "geometry": {
        "type": "Point",
        "coordinates": [
          28.89345508615238,
          80.21186418326903
        ]
      }
    },
    {
      "type": "Feature",
      "properties": {
        "norad_id": 34366,
        "name": "IRIDIUM 33 DEB",
        "group": "iridium-33-debris",
        "lat": 72.94790630680401,
        "lon": -138.38573129630063,
        "alt_km": 699.3662491654313,
        "timestamp": "2025-12-02T23:34:15.901579+00:00",
        "meta_object_name": "IRIDIUM 33 DEB",
        "meta_object_id": "1997-051FJ",
        "meta_epoch": "2025-12-02T11:35:18.626208",
        "meta_mean_motion": 14.53898098,
        "meta_eccentricity": 0.0021636,
        "meta_inclination": 86.3709,
        "meta_ra_of_asc_node": 53.7729,
        "meta_arg_of_pericenter": 172.7514,
        "meta_mean_anomaly": 202.5717,
        "meta_ephemeris_type": 0,
        "meta_classification_type": "U",
        "meta_norad_cat_id": 34366,
        "meta_element_set_no": 999,
        "meta_rev_at_epoch": 88033,
        "meta_bstar": 0.0015823,
        "meta_mean_motion_dot": 6.695e-05,
        "meta_mean_motion_ddot": 0,
        "tle_line1": "1 34366U 97051FJ  25336.48285447  .00006695  00000+0  15823-2 0  9991",
        "tle_line2": "2 34366  86.3709  53.7729 0021636 172.7514 202.5717 14.53898098880336"
      },
      "geometry": {
        "type": "Point",
        "coordinates": [
          -138.38573129630063,
          72.94790630680401
        ]
      }
    },
    {
      "type": "Feature",
      "properties": {
        "norad_id": 34375,
        "name": "IRIDIUM 33 DEB",
        "group": "iridium-33-debris",
        "lat": -26.019721264713894,
        "lon": 8.373496183470476,
        "alt_km": 788.6504376384382,
        "timestamp": "2025-12-02T23:34:15.901590+00:00",
        "meta_object_name": "IRIDIUM 33 DEB",
        "meta_object_id": "1997-051FT",
        "meta_epoch": "2025-12-02T01:18:17.719200",
        "meta_mean_motion": 14.17961976,
        "meta_eccentricity": 0.01023658,
        "meta_inclination": 86.4333,
        "meta_ra_of_asc_node": 187.0026,
        "meta_arg_of_pericenter": 160.3927,
        "meta_mean_anomaly": 351.7564,
        "meta_ephemeris_type": 0,
        "meta_classification_type": "U",
        "meta_norad_cat_id": 34375,
        "meta_element_set_no": 999,
        "meta_rev_at_epoch": 86560,
        "meta_bstar": 0.00046830706,
        "meta_mean_motion_dot": 1.028e-05,
        "meta_mean_motion_ddot": 0,
        "tle_line1": "1 34375U 97051FT  25336.05437175  .00001028  00000+0  46831-3 0  9990",
        "tle_line2": "2 34375  86.4333 187.0026 0102365 160.3927 351.7564 14.17961976865607"
      },
      "geometry": {
        "type": "Point",
        "coordinates": [
          8.373496183470476,
          -26.019721264713894
        ]
      }
    },
    {
      "type": "Feature",
      "properties": {
        "norad_id": 34376,
        "name": "IRIDIUM 33 DEB",
        "group": "iridium-33-debris",
        "lat": 82.12263572429366,
        "lon": 163.04056470827146,
        "alt_km": 682.4264990600923,
        "timestamp": "2025-12-02T23:34:15.901600+00:00",
        "meta_object_name": "IRIDIUM 33 DEB",
        "meta_object_id": "1997-051FU",
        "meta_epoch": "2025-12-02T03:25:12.488160",
        "meta_mean_motion": 14.62320389,
        "meta_eccentricity": 0.00259524,
        "meta_inclination": 86.2999,
        "meta_ra_of_asc_node": 11.3033,
        "meta_arg_of_pericenter": 203.051,
        "meta_mean_anomaly": 156.9539,
        "meta_ephemeris_type": 0,
        "meta_classification_type": "U",
        "meta_norad_cat_id": 34376,
        "meta_element_set_no": 999,
        "meta_rev_at_epoch": 87852,
        "meta_bstar": 0.0016838438,
        "meta_mean_motion_dot": 8.565e-05,
        "meta_mean_motion_ddot": 0,
        "tle_line1": "1 34376U 97051FU  25336.14250565  .00008565  00000+0  16838-2 0  9993",
        "tle_line2": "2 34376  86.2999  11.3033 0025952 203.0510 156.9539 14.62320389878529"
      },
      "geometry": {
        "type": "Point",
        "coordinates": [
          163.04056470827146,
          82.12263572429366
        ]
      }
    },
    {
      "type": "Feature",
      "properties": {
        "norad_id": 34486,
        "name": "IRIDIUM 33 DEB",
        "group": "iridium-33-debris",
        "lat": -56.5666226994037,
        "lon": -157.99415310062375,
        "alt_km": 589.644305415748,
        "timestamp": "2025-12-02T23:34:15.901610+00:00",
        "meta_object_name": "IRIDIUM 33 DEB",
        "meta_object_id": "1997-051GB",
        "meta_epoch": "2025-12-02T03:28:52.308768",
        "meta_mean_motion": 14.95027296,
        "meta_eccentricity": 0.00126834,
        "meta_inclination": 86.3954,
        "meta_ra_of_asc_node": 16.9124,
        "meta_arg_of_pericenter": 147.5491,
        "meta_mean_anomaly": 266.6737,
        "meta_ephemeris_type": 0,
        "meta_classification_type": "U",
        "meta_norad_cat_id": 34486,
        "meta_element_set_no": 999,
        "meta_rev_at_epoch": 88828,
        "meta_bstar": 0.0024552903,
        "meta_mean_motion_dot": 0.00026994,
        "meta_mean_motion_ddot": 0,
        "tle_line1": "1 34486U 97051GB  25336.14504987  .00026994  00000+0  24553-2 0  9994",
        "tle_line2": "2 34486  86.3954  16.9124 0012683 147.5491 266.6737 14.95027296888282"
      },
      "geometry": {
        "type": "Point",
        "coordinates": [
          -157.99415310062375,
          -56.5666226994037
        ]
      }
    },
    {
      "type": "Feature",
      "properties": {
        "norad_id": 34487,
        "name": "IRIDIUM 33 DEB",
        "group": "iridium-33-debris",
        "lat": -74.83515187997608,
        "lon": 2.9353560258998024,
        "alt_km": 768.4514648203294,
        "timestamp": "2025-12-02T23:34:15.901621+00:00",
        "meta_object_name": "IRIDIUM 33 DEB",
        "meta_object_id": "1997-051GC",
        "meta_epoch": "2025-12-01T15:14:00.920832",
        "meta_mean_motion": 14.43192153,
        "meta_eccentricity": 0.00317068,
        "meta_inclination": 86.3445,
        "meta_ra_of_asc_node": 17.1579,
        "meta_arg_of_pericenter": 163.7221,
        "meta_mean_anomaly": 324.8136,
        "meta_ephemeris_type": 0,
        "meta_classification_type": "U",
        "meta_norad_cat_id": 34487,
        "meta_element_set_no": 999,
        "meta_rev_at_epoch": 88088,
        "meta_bstar": 0.0002149908,
        "meta_mean_motion_dot": 7.47e-06,
        "meta_mean_motion_ddot": 0,
        "tle_line1": "1 34487U 97051GC  25335.63473288  .00000747  00000+0  21499-3 0  9992",
        "tle_line2": "2 34487  86.3445  17.1579 0031706 163.7221 324.8136 14.43192153880889"
      },
      "geometry": {
        "type": "Point",
        "coordinates": [
          2.9353560258998024,
          -74.83515187997608
        ]
      }
    },
    {
      "type": "Feature",
      "properties": {
        "norad_id": 34488,
        "name": "IRIDIUM 33 DEB",
        "group": "iridium-33-debris",
        "lat": 9.787882559793516,
        "lon": 129.99871743812133,
        "alt_km": 492.63343354365134,
        "timestamp": "2025-12-02T23:34:15.901633+00:00",
        "meta_object_name": "IRIDIUM 33 DEB",
        "meta_object_id": "1997-051GD",
        "meta_epoch": "2025-12-02T10:14:15.692064",
        "meta_mean_motion": 15.25775894,
        "meta_eccentricity": 0.001576,
        "meta_inclination": 86.3247,
        "meta_ra_of_asc_node": 310.9077,
        "meta_arg_of_pericenter": 67.3176,
        "meta_mean_anomaly": 292.9735,
        "meta_ephemeris_type": 0,
        "meta_classification_type": "U",
        "meta_norad_cat_id": 34488,
        "meta_element_set_no": 999,
        "meta_rev_at_epoch": 89082,
        "meta_bstar": 0.0046884,
        "meta_mean_motion_dot": 0.00121875,
        "meta_mean_motion_ddot": 0,
        "tle_line1": "1 34488U 97051GD  25336.42657051  .00121875  00000+0  46884-2 0  9993",
        "tle_line2": "2 34488  86.3247 310.9077 0015760  67.3176 292.9735 15.25775894890822"
      },
      "geometry": {
        "type": "Point",
        "coordinates": [
          129.99871743812133,
          9.787882559793516
        ]
      }
    }
  ]
}